ONEWEB-0710             
1 55173U 23004AK  24093.21707067  .00000131  00000+0  30348-3 0  9993
2 55173  87.9238 166.2597 0002208 107.2533 252.8840 13.17649742 61447
ONEWEB-0711             
1 55174U 23004AL  24093.48163988  .00000082  00000+0  19669-3 0  9999
2 55174  87.9033 181.3031 0002903  96.6643 263.4816 13.11415571 60239
ONEWEB-0713             
1 55175U 23004AM  24093.49948914 -.00000489  00000+0 -14168-2 0  9992
2 55175  87.9036 181.3073 0002336  98.4726 261.6667 13.11416973 60221
ONEWEB-0715             
1 55176U 23004AN  24093.49461992 -.00000417  00000+0 -12130-2 0  9997
2 55176  87.9035 181.3085 0002139  97.7560 262.3811 13.11416225 60266
ONEWEB-0716             
1 55177U 23004AP  24093.28666494 -.00000507  00000+0 -13394-2 0  9992
2 55177  87.9240 166.2360 0001884  96.5284 263.6062 13.17650323 61458
ONEWEB-0717             
1 55178U 23004AQ  24093.49709118  .00000039  00000+0  68240-4 0  9997
2 55178  87.9239 166.1600 0003055 105.7429 254.4040 13.17649243 61531
ONEWEB-0719             
1 55179U 23004AR  24093.43221093  .00000098  00000+0  21939-3 0  9991
2 55179  87.9238 166.1595 0002078  92.8230 267.3140 13.17647656 61477
ONEWEB-0530             
1 55796U 23029A   24093.87152969  .00000067  00000+0  13210-3 0  9995
2 55796  87.9152  74.7226 0002546  82.6789 277.4634 13.20769761 55556
